OBJECT_NAME,OBJECT_ID,EPOCH,MEAN_MOTION,ECCENTRICITY,INCLINATION,RA_OF_ASC_NODE,ARG_OF_PERICENTER,MEAN_ANOMALY,EPHEMERIS_TYPE,CLASSIFICATION_TYPE,NORAD_CAT_ID,ELEMENT_SET_NO,REV_AT_EPOCH,BSTAR,MEAN_MOTION_DOT,MEAN_MOTION_DDOT
LEMUR-1,2014-033AL,2026-06-25T23:37:48.815328,14.85276636,.00492851,97.7884,326.5944,50.5058,310.0500,0,U,40044,999,64677,.21365101E-3,.1819E-4,0
LEMUR-2-GREENBERG,2017-042N,2026-06-26T05:37:48.817056,15.31592662,.00076714,97.3819,357.8192,339.7319,20.3617,0,U,42837,999,48977,.60818844E-3,.18517E-3,0
LEMUR-2-ANDIS,2017-042P,2026-06-26T05:49:52.390272,15.35191789,.0007454,97.3677,358.0432,337.3600,22.7313,0,U,42838,999,48984,.704781E-3,.24063E-3,0
LEMUR-2-MONSON,2017-042Q,2026-06-25T11:27:21.369888,15.28227889,.0005532,97.4081,357.0248,333.9572,26.1388,0,U,42839,999,48943,.67583E-3,.18549E-3,0
LEMUR-2-FURIAUS,2017-042R,2026-06-26T05:37:58.107648,15.30534505,.00075362,97.3769,355.7541,40.0938,320.0858,0,U,42840,999,48959,.67542172E-3,.19911E-3,0
LEMUR-2-PETERG,2017-042S,2026-06-26T05:35:10.391424,15.34249201,.00026899,97.3990,2.2796,314.3019,45.8003,0,U,42841,999,48982,.79695175E-3,.26406E-3,0
LEMUR-2-DEMBITZ,2017-042T,2026-06-25T23:49:43.658688,15.30544210,.00059749,97.3823,358.5446,356.9882,3.1321,0,U,42842,999,48969,.60556941E-3,.17838E-3,0
LEMUR-2-ZACHARY,2017-042W,2026-06-25T12:21:30.936096,15.50949573,.0002375,97.3594,8.3323,353.4358,6.6862,0,U,42845,999,49049,.1011E-2,.58848E-3,0
LEMUR-2-AMANDA-SVANTE,2021-034B,2026-06-26T03:51:17.237952,15.34813940,.00031963,97.5761,255.6850,183.8920,176.2298,0,U,48269,999,28243,.11169118E-2,.37764E-3,0
LEMUR-2-SPECIAL-K,2021-034F,2026-06-26T05:23:55.748256,15.67151890,.000494,97.5653,264.7529,223.2587,136.8285,0,U,48273,999,28310,.17851938E-2,.194886E-2,0
LEMUR-2-EMBRIONOVIS,2023-084AQ,2026-06-25T22:07:38.869824,15.37756561,.0007466,97.6292,321.4579,283.8692,76.1722,0,U,56970,999,16902,.4226618E-3,.15616E-3,0
LEMUR-2-DEVERILL-M-T,2023-100F,2026-06-26T00:09:42.448320,15.40166798,.00055511,99.4473,218.3137,19.3455,340.7994,0,U,57391,999,16260,.73306212E-3,.29391E-3,0
LEMUR-2-BASS,2023-174D,2026-06-26T05:21:28.733472,15.43382671,.00080672,97.3852,262.0628,134.6574,225.5333,0,U,58259,999,14675,.44662332E-3,.19897E-3,0
LEMUR-2-JK0903EM1407,2023-174CJ,2026-06-26T05:39:03.000960,15.52127486,.00051562,97.3931,267.9618,93.4243,266.7600,0,U,58336,999,14713,.5133362E-3,.31015E-3,0
LEMUR-2-MJR092620,2023-174CN,2026-06-26T05:25:30.902304,15.45194313,.00068704,97.3982,267.4227,91.3139,268.8897,0,U,58340,999,14704,.45934675E-3,.21759E-3,0
LEMUR-2-NIMBUS2000,2024-022A,2026-06-26T02:38:05.308224,15.40341309,.00102841,97.4106,27.2244,89.1609,271.0815,0,U,58899,999,13364,.59079674E-3,.23839E-3,0
LEMUR-2-VALHALLA,2024-022B,2026-06-26T02:35:38.399712,15.39929857,.00107758,97.4103,27.2083,85.0596,275.1880,0,U,58900,999,13364,.46003319E-3,.18284E-3,0
LEMUR-2-CAEL,2024-022E,2026-06-26T02:38:51.768096,15.41250491,.00089624,97.4086,28.1623,71.2657,288.9561,0,U,58903,999,13371,.46421138E-3,.19264E-3,0
LEMUR-2-JOHNNYTRUONG,2024-043BA,2026-06-25T23:56:43.984320,15.61102759,.00048657,97.5374,329.2505,149.9773,210.1764,0,U,59146,999,12941,.51323489E-3,.43301E-3,0
LEMUR-2-TOMATOKECHUP,2024-149D,2026-06-26T05:27:06.484032,15.36210776,.00022257,97.3804,259.2973,158.0389,202.0951,0,U,60471,999,10355,.35164995E-3,.12335E-3,0
LEMUR-2-STELLA,2024-149BT,2026-06-26T00:23:57.331392,15.11984379,.0001511,97.6742,259.5106,97.1382,263.0020,0,U,60533,999,10183,.74200973E-3,.12681E-3,0
LEMUR-2-MARHISYAM,2024-149BW,2026-06-26T04:46:16.190400,15.11425100,.00032748,97.6882,260.1519,102.0033,258.1564,0,U,60536,999,10184,.67705108E-3,.11386E-3,0
LEMUR-2-AHMED-ASRAR,2024-149DN,2026-06-26T03:47:38.850720,15.12904051,.00010628,97.7009,262.2384,24.4176,335.7104,0,U,60576,999,10192,.77465124E-3,.13587E-3,0
LEMUR-2-LLOYD,2024-149DP,2026-06-26T04:35:25.848096,15.09400718,.0005087,97.6746,258.3252,117.9672,242.2072,0,U,60577,999,10175,.7213097E-3,.11477E-3,0
LEMUR-2-SQUIRRELCOMM,2024-149DQ,2026-06-26T03:38:26.576736,15.07249295,.00059286,97.6719,258.0348,37.5029,322.6611,0,U,60578,999,10175,.46287943E-3,.6919E-4,0
LEMUR-2-SIERRINI,2024-149DR,2026-06-26T05:22:48.709632,15.11128218,.00064459,97.6849,259.8566,139.0000,221.1715,0,U,60579,999,10182,.75315911E-3,.12576E-3,0
LEMUR-2-WILSON,2025-009CP,2026-06-26T04:42:59.151744,14.95201747,.00035947,97.7026,255.5031,31.9738,328.1700,0,U,62694,999,7870,.18304147E-3,.1955E-4,0
LEMUR-2-STAR-FOX,2025-009CR,2026-06-25T16:24:16.903008,15.02608478,.00043479,97.6953,258.2312,94.2616,265.9106,0,U,62696,999,7883,.54461736E-3,.7196E-4,0
LEMUR-2-ARIANNA,2025-009CU,2026-06-26T03:33:18.143424,15.02603268,.00047518,97.6896,258.4598,97.6679,262.5086,0,U,62699,999,7890,.64827786E-3,.8578E-4,0
LEMUR-2-ALISIA,2025-009DB,2026-06-26T04:34:57.668736,15.02886005,.00027469,97.6934,259.2980,182.3566,177.7646,0,U,62706,999,10151,.70304495E-3,.9377E-4,0
